*******************************************************************************
Ephemeris / WWW_USER Mon Mar 24 09:21:54 2025 Pasadena, USA      / Horizons    
*******************************************************************************
Target body name: 341764 (2007 VZ326)             {source: JPL#18}
Center body name: Earth (399)                     {source: DE441}
Center-site name: Mauna Kea
*******************************************************************************
Start time      : A.D. 2018-Sep-04 04:44:00.0000 UT      
Stop  time      : A.D. 2018-Sep-04 15:57:00.0000 UT      
Step-size       : 1 minutes
*******************************************************************************
Target pole/equ : undefined
Target radii    : undefined                                                    
Center geodetic : 204.5278, 19.8260847, 4.21024   {E-lon(deg),Lat(deg),Alt(km)}
Center cylindric: 204.5278, 6006.35451, 2151.0229 {E-lon(deg),Dxy(km),Dz(km)}
Center pole/equ : ITRF93                          {East-longitude positive}
Center radii    : 6378.137, 6378.137, 6356.752 km {Equator_a, b, pole_c}       
Target primary  : Sun
Vis. interferer : MOON (R_eq= 1737.400) km        {source: DE441}
Rel. light bend : Sun                             {source: DE441}
Rel. lght bnd GM: 1.3271E+11 km^3/s^2                                          
Small-body perts: Yes                             {source: SB441-N16}
Atmos refraction: NO (AIRLESS)
RA format       : HMS
Time format     : CAL 
Calendar mode   : Mixed Julian/Gregorian
RTS-only print  : NO       
EOP file        : eop.250321.p250617                                           
EOP coverage    : DATA-BASED 1962-JAN-20 TO 2025-MAR-21. PREDICTS-> 2025-JUN-16
Units conversion: 1 au= 149597870.700 km, c= 299792.458 km/s, 1 day= 86400.0 s 
Table cut-offs 1: Elevation (-90.0deg=NO ),Airmass (>38.000=NO), Daylight (YES)
Table cut-offs 2: Solar elongation (  0.0,180.0=NO ),Local Hour Angle( 0.0=NO )
Table cut-offs 3: RA/DEC angular rate (     0.0=NO )                           
*******************************************************************************
Initial IAU76/J2000 heliocentric ecliptic osculating elements (au, days, deg.):
  EPOCH=  2458738.5 ! 2019-Sep-12.00 (TDB)         Residual RMS= .13886        
   EC= .1008373990761695   QR= 2.768240023430626   TP= 2458584.3440952813      
   OM= 228.7009686323446   W=  245.4004729743531   IN= 4.232471987434818       
  Equivalent ICRF heliocentric cartesian coordinates (au, au/d):
   X=-2.388613100272569E+00  Y= 1.431394755664809E+00  Z= 3.975078424350988E-01
  VX=-6.081658482309184E-03 VY=-8.102092841560219E-03 VZ=-3.413222734767960E-03
Asteroid physical parameters (km, seconds, rotational period in hours):        
   GM= n.a.                RAD= n.a.               ROTPER= n.a.                
   H= 16.54                G= .150                 B-V= n.a.                   
                           ALBEDO= n.a.            STYP= n.a.                  
*******************************************************************************
 Date__(UT)__HR:MN     R.A._________(ICRF)_________DEC
******************************************************
$$SOE
 2018-Sep-04 08:50     05 42 50.510491 +22 09 06.47918
 2018-Sep-04 08:51     05 42 50.560816 +22 09 06.45396
 2018-Sep-04 08:52     05 42 50.611137 +22 09 06.42874
 2018-Sep-04 08:53     05 42 50.661455 +22 09 06.40354
 2018-Sep-04 08:54     05 42 50.711769 +22 09 06.37834
 2018-Sep-04 08:55     05 42 50.762079 +22 09 06.35315
 2018-Sep-04 08:56     05 42 50.812386 +22 09 06.32798
 2018-Sep-04 08:57     05 42 50.862690 +22 09 06.30281
 2018-Sep-04 08:58     05 42 50.912989 +22 09 06.27766
 2018-Sep-04 08:59     05 42 50.963286 +22 09 06.25251
 2018-Sep-04 09:00     05 42 51.013578 +22 09 06.22737
 2018-Sep-04 09:01     05 42 51.063868 +22 09 06.20225
 2018-Sep-04 09:02     05 42 51.114153 +22 09 06.17713
 2018-Sep-04 09:03     05 42 51.164435 +22 09 06.15202
 2018-Sep-04 09:04     05 42 51.214713 +22 09 06.12692
 2018-Sep-04 09:05     05 42 51.264988 +22 09 06.10183
 2018-Sep-04 09:06     05 42 51.315259 +22 09 06.07675
 2018-Sep-04 09:07     05 42 51.365526 +22 09 06.05168
 2018-Sep-04 09:08     05 42 51.415790 +22 09 06.02662
 2018-Sep-04 09:09     05 42 51.466050 +22 09 06.00156
 2018-Sep-04 09:10     05 42 51.516307 +22 09 05.97652
 2018-Sep-04 09:11     05 42 51.566559 +22 09 05.95148
 2018-Sep-04 09:12     05 42 51.616808 +22 09 05.92646
 2018-Sep-04 09:13     05 42 51.667054 +22 09 05.90144
 2018-Sep-04 09:14     05 42 51.717295 +22 09 05.87643
 2018-Sep-04 09:15     05 42 51.767533 +22 09 05.85143
 2018-Sep-04 09:16     05 42 51.817767 +22 09 05.82644
 2018-Sep-04 09:17     05 42 51.867998 +22 09 05.80145
 2018-Sep-04 09:18     05 42 51.918224 +22 09 05.77648
 2018-Sep-04 09:19     05 42 51.968447 +22 09 05.75151
 2018-Sep-04 09:20     05 42 52.018667 +22 09 05.72655
 2018-Sep-04 09:21     05 42 52.068882 +22 09 05.70160
 2018-Sep-04 09:22     05 42 52.119094 +22 09 05.67665
 2018-Sep-04 09:23     05 42 52.169302 +22 09 05.65172
 2018-Sep-04 09:24     05 42 52.219506 +22 09 05.62679
 2018-Sep-04 09:25     05 42 52.269706 +22 09 05.60187
 2018-Sep-04 09:26     05 42 52.319902 +22 09 05.57695
 2018-Sep-04 09:27     05 42 52.370095 +22 09 05.55205
 2018-Sep-04 09:28     05 42 52.420284 +22 09 05.52715
 2018-Sep-04 09:29     05 42 52.470469 +22 09 05.50226
 2018-Sep-04 09:30     05 42 52.520650 +22 09 05.47738
 2018-Sep-04 09:31     05 42 52.570828 +22 09 05.45250
 2018-Sep-04 09:32     05 42 52.621001 +22 09 05.42763
 2018-Sep-04 09:33     05 42 52.671171 +22 09 05.40277
 2018-Sep-04 09:34     05 42 52.721337 +22 09 05.37792
 2018-Sep-04 09:35     05 42 52.771498 +22 09 05.35307
 2018-Sep-04 09:36     05 42 52.821656 +22 09 05.32823
 2018-Sep-04 09:37     05 42 52.871811 +22 09 05.30340
 2018-Sep-04 09:38     05 42 52.921961 +22 09 05.27857
 2018-Sep-04 09:39     05 42 52.972107 +22 09 05.25375
 2018-Sep-04 09:40     05 42 53.022250 +22 09 05.22893
 2018-Sep-04 09:41     05 42 53.072388 +22 09 05.20412
 2018-Sep-04 09:42     05 42 53.122523 +22 09 05.17932
 2018-Sep-04 09:43     05 42 53.172654 +22 09 05.15453
 2018-Sep-04 09:44     05 42 53.222780 +22 09 05.12974
 2018-Sep-04 09:45     05 42 53.272903 +22 09 05.10496
 2018-Sep-04 09:46     05 42 53.323022 +22 09 05.08018
 2018-Sep-04 09:47     05 42 53.373137 +22 09 05.05541
 2018-Sep-04 09:48     05 42 53.423248 +22 09 05.03064
 2018-Sep-04 09:49     05 42 53.473355 +22 09 05.00588
 2018-Sep-04 09:50     05 42 53.523458 +22 09 04.98113
 2018-Sep-04 09:51     05 42 53.573557 +22 09 04.95638
 2018-Sep-04 09:52     05 42 53.623652 +22 09 04.93164
 2018-Sep-04 09:53     05 42 53.673743 +22 09 04.90690
 2018-Sep-04 09:54     05 42 53.723831 +22 09 04.88217
 2018-Sep-04 09:55     05 42 53.773914 +22 09 04.85744
 2018-Sep-04 09:56     05 42 53.823993 +22 09 04.83272
 2018-Sep-04 09:57     05 42 53.874068 +22 09 04.80801
 2018-Sep-04 09:58     05 42 53.924139 +22 09 04.78329
 2018-Sep-04 09:59     05 42 53.974206 +22 09 04.75859
 2018-Sep-04 10:00     05 42 54.024269 +22 09 04.73389
 2018-Sep-04 10:01     05 42 54.074328 +22 09 04.70919
 2018-Sep-04 10:02     05 42 54.124383 +22 09 04.68450
 2018-Sep-04 10:03     05 42 54.174434 +22 09 04.65981
 2018-Sep-04 10:04     05 42 54.224481 +22 09 04.63513
 2018-Sep-04 10:05     05 42 54.274524 +22 09 04.61045
 2018-Sep-04 10:06     05 42 54.324563 +22 09 04.58577
 2018-Sep-04 10:07     05 42 54.374597 +22 09 04.56110
 2018-Sep-04 10:08     05 42 54.424628 +22 09 04.53644
 2018-Sep-04 10:09     05 42 54.474655 +22 09 04.51178
 2018-Sep-04 10:10     05 42 54.524677 +22 09 04.48712
 2018-Sep-04 10:11     05 42 54.574696 +22 09 04.46246
 2018-Sep-04 10:12     05 42 54.624710 +22 09 04.43781
 2018-Sep-04 10:13     05 42 54.674720 +22 09 04.41317
 2018-Sep-04 10:14     05 42 54.724726 +22 09 04.38853
 2018-Sep-04 10:15     05 42 54.774728 +22 09 04.36389
 2018-Sep-04 10:16     05 42 54.824726 +22 09 04.33925
 2018-Sep-04 10:17     05 42 54.874720 +22 09 04.31462
 2018-Sep-04 10:18     05 42 54.924710 +22 09 04.28999
 2018-Sep-04 10:19     05 42 54.974696 +22 09 04.26536
 2018-Sep-04 10:20     05 42 55.024677 +22 09 04.24074
 2018-Sep-04 10:21     05 42 55.074655 +22 09 04.21612
 2018-Sep-04 10:22     05 42 55.124628 +22 09 04.19151
 2018-Sep-04 10:23     05 42 55.174597 +22 09 04.16689
 2018-Sep-04 10:24     05 42 55.224562 +22 09 04.14228
 2018-Sep-04 10:25     05 42 55.274523 +22 09 04.11767
 2018-Sep-04 10:26  r  05 42 55.324480 +22 09 04.09307
 2018-Sep-04 10:27     05 42 55.374432 +22 09 04.06846
 2018-Sep-04 10:28     05 42 55.424381 +22 09 04.04386
 2018-Sep-04 10:29     05 42 55.474325 +22 09 04.01927
 2018-Sep-04 10:30     05 42 55.524265 +22 09 03.99467
 2018-Sep-04 10:31     05 42 55.574201 +22 09 03.97008
 2018-Sep-04 10:32     05 42 55.624133 +22 09 03.94548
 2018-Sep-04 10:33     05 42 55.674061 +22 09 03.92089
 2018-Sep-04 10:34     05 42 55.723984 +22 09 03.89631
 2018-Sep-04 10:35     05 42 55.773903 +22 09 03.87172
 2018-Sep-04 10:36     05 42 55.823818 +22 09 03.84714
 2018-Sep-04 10:37     05 42 55.873729 +22 09 03.82255
 2018-Sep-04 10:38     05 42 55.923636 +22 09 03.79797
 2018-Sep-04 10:39     05 42 55.973539 +22 09 03.77339
 2018-Sep-04 10:40     05 42 56.023437 +22 09 03.74881
 2018-Sep-04 10:41     05 42 56.073332 +22 09 03.72424
 2018-Sep-04 10:42     05 42 56.123222 +22 09 03.69966
 2018-Sep-04 10:43     05 42 56.173107 +22 09 03.67509
 2018-Sep-04 10:44     05 42 56.222989 +22 09 03.65051
 2018-Sep-04 10:45  m  05 42 56.272867 +22 09 03.62594
 2018-Sep-04 10:46  m  05 42 56.322740 +22 09 03.60137
 2018-Sep-04 10:47  m  05 42 56.372609 +22 09 03.57680
 2018-Sep-04 10:48  m  05 42 56.422474 +22 09 03.55223
 2018-Sep-04 10:49  m  05 42 56.472335 +22 09 03.52766
 2018-Sep-04 10:50  m  05 42 56.522191 +22 09 03.50309
 2018-Sep-04 10:51  m  05 42 56.572043 +22 09 03.47852
 2018-Sep-04 10:52  m  05 42 56.621892 +22 09 03.45395
